[Satellite]
VERSION=1.1
NAME=SL-16 R/B
NICKNAME=SL-16 R/B
TLE1=1 23343U 94074B   18021.18261071 -.00000026  00000-0  38138-5 0  9994
TLE2=2 23343  98.1262  65.0969 0008267  93.8153 307.1564 14.76722035249000
